0 SDS-4
1 38339U 12025C   21050.62798739  .00000027  00000-0  13037-4 0  9992
2 38339  98.3148 102.4264 0007506   9.1235 351.0106 14.70620023470044
0 HORYU 2
1 38340U 12025D   21050.46037628  .00000160  00000-0  31125-4 0  9995
2 38340  98.2480 115.5423 0010772 338.4129  21.6624 14.75976844460982
0 YAOGAN 15
1 38354U 12029A   21050.68991701 -.00000027  00000-0  48372-4 0  9994
2 38354 100.6074 197.2653 0025362  12.0143 348.1569 13.18262469419355
0 NUSTAR
1 38358U 12031A   21050.24467004  .00000984  00000-0  28781-4 0  9990
2 38358   6.0262 276.1672 0012147 210.9104 149.0309 14.88451528472799
0 KANOPUS-V 1
1 38707U 12039A   21050.79925719  .00000928  00000-0  46853-4 0  9996
2 38707  97.4643 332.6951 0001717  81.5852   3.1909 15.19548082476062
0 BKA 2
1 38708U 12039B   21050.79090425  .00000365  00000-0  20001-4 0  9996
2 38708  97.3678 317.7183 0001568  85.4693 359.3664 15.20073932476064
0 EXACTVIEW-1
1 38709U 12039C   21050.65397336 -.00000019  00000-0  12352-4 0  9990
2 38709  99.0783  98.3608 0011045  10.2149 349.9250 14.24039862446024
0 TET-1
1 38710U 12039D   21050.42077150  .00003918  00000-0  63982-4 0  9991
2 38710  97.5735  97.6626 0002740  50.1212 310.0281 15.53241159482192
0 MKA-FKI 1
1 38711U 12039E   21050.36966379 -.00000008  00000-0  16864-4 0  9990
2 38711  99.0750  97.4557 0011654  11.4684 348.6757 14.24317975446052
0 COSMOS 2481
1 38733U 12041A   21050.42623400 -.00000006  00000-0 -11682-3 0  9990
2 38733  82.4749 206.9982 0018279 351.8846   8.1941 12.42383521388461
0 GONETS M 03
1 38734U 12041B   21050.72497515  .00000009  00000-0 -83911-5 0  9998
2 38734  82.4745 201.9493 0015986 357.8244   2.2764 12.44817102388928
0 YUBELEINY 2
1 38735U 12041C   21050.39541252  .00000015  00000-0  36465-4 0  9997
2 38735  82.4754 206.6799 0016778 345.9549  14.1061 12.42581925388523
0 GONETS M 04
1 38736U 12041D   21050.41221186 -.00000003  00000-0 -89938-4 0  9994
2 38736  82.4793 205.1675 0024056 340.1379  19.8766 12.43820233388725
0 TELKOM 3
1 38744U 12044A   21036.34752889  .09689703  12133-4  29343-3 0  9995
2 38744  49.8612 254.0713 0026411 112.2201  58.0988 16.41951379389603
0 SPOT 6
1 38755U 12047A   21050.78343230 -.00000030  00000-0  33744-5 0  9990
2 38755  98.2164 119.9449 0001642  85.6981 274.4398 14.58545635449793
0 PROITERES
1 38756U 12047B   21050.51129088  .00000196  00000-0  35971-4 0  9990
2 38756  98.4065 242.2828 0012701 154.4083 205.7754 14.76722186455072
0 AEROCUBE 4.5A
1 38767U 12048K   21050.81011216  .00000239  00000-0  34649-4 0  9998
2 38767  64.6660 182.7535 0139721  46.3061 314.9526 14.92586322 78710
0 AEROCUBE 4.5B
1 38768U 12048L   21050.27074504  .00000366  00000-0  41660-4 0  9990
2 38768  64.6671 148.5481 0131041  40.8235 320.2604 14.96372527 78803
0 AEROCUBE 4
1 38769U 12048M   21050.47036328  .00000152  00000-0  29096-4 0  9997
2 38769  64.6676 216.4034 0149249  48.2011 313.1736 14.89414943 78539
0 METOP-B
1 38771U 12049A   21050.77053039 -.00000013  00000-0  14134-4 0  9996
2 38771  98.6961 112.5040 0001750  43.3361  57.9340 14.21497905437153
0 VRSS-1
1 38782U 12052A   21050.79320020  .00000039  00000-0  12609-4 0  9993
2 38782  97.7291 107.1150 0018877  81.9136 278.4208 14.76049843452670
0 SJ-9A
1 38860U 12056A   21050.72529167  .00000050  00000-0  13186-4 0  9994
2 38860  97.6441  92.9676 0030075 146.0156 214.2978 14.79612788451001
0 SJ-9B
1 38861U 12056B   21050.70099955  .00000094  00000-0  18357-4 0  9993
2 38861  97.6609 101.4253 0019371 140.3255 219.9374 14.81585674451310
0 HJ-1C
1 38997U 12064A   21050.87003789  .00002691  00000-0  61651-4 0  9990
2 38997  97.1322  82.2027 0009428 174.7852 358.1339 15.43596842463934
0 FENGNIAO 1 (FN-1)
1 38998U 12064B   21050.83254449  .00001517  00000-0  35333-4 0  9992
2 38998  97.2019  85.7240 0004644 214.0959 145.9992 15.43836898462995
0 YAOGAN 16A
1 39011U 12066A   21050.56097637 -.00000096  00000-0 -68765-5 0  9994
2 39011  63.3685 260.4369 0270047  13.4027 347.3993 13.45204730404672
0 YAOGAN 16B
1 39012U 12066B   21050.85909212 -.00000187  00000-0 -13149-3 0  9993
2 39012  63.3691 259.7739 0269842  13.2652 347.5284 13.45201042404729
0 YAOGAN 16C
1 39013U 12066C   21050.56025742 -.00000023  00000-0  91568-4 0  9999
2 39013  63.3703 259.8902 0269642  12.9159 347.8595 13.45207030404702
0 PLEIADES 1B
1 39019U 12068A   21050.80253954 -.00000592  00000-0 -11748-3 0  9995
2 39019  98.1810 127.6949 0001501  91.3769 268.7563 14.58554829437575
0 KMS 3-2
1 39026U 12072A   21050.42923562  .00001831  00000-0  65114-4 0  9997
2 39026  97.2386  46.2593 0038089  85.2276 275.3312 15.29580848454987
0 GOKTURK 2
1 39030U 12073A   21050.68042136  .00000030  00000-0  12352-4 0  9996
2 39030  97.9213 298.6238 0002871  80.5876 279.5658 14.72794086438294
0 COSMOS 2482
1 39057U 13001A   21050.45479965 -.00000005  00000-0 -10509-3 0  9991
2 39057  82.5033 349.5395 0027220 307.3285  52.5315 12.42912102367311
0 COSMOS 2483
1 39058U 13001B   21050.78667843  .00000006  00000-0 -23879-4 0  9997
2 39058  82.5048 346.0432 0015920 304.9018  55.0566 12.43961244367658
0 COSMOS 2484
1 39059U 13001C   21050.40623361  .00000012  00000-0  14047-4 0  9997
2 39059  82.5080 350.4409 0025471 317.2108  42.7005 12.42973110367292
0 GLOBALSTAR M097
1 39072U 13005A   21050.43260795 -.00000111  00000-0 -42227-4 0  9990
2 39072  52.0060  40.3308 0000745  72.5024 287.5924 12.62267237371512
0 GLOBALSTAR M093
1 39073U 13005B   21050.40569291 -.00000110  00000-0 -33347-4 0  9993
2 39073  51.9831  36.2433 0000611  42.9227 317.1687 12.62266229371479
0 GLOBALSTAR M094
1 39074U 13005C   21050.40601905 -.00000090  00000-0  75475-4 0  9997
2 39074  51.9969 309.0536 0000777  60.1720 299.9224 12.62266887372992
0 GLOBALSTAR M096
1 39075U 13005D   21050.81504228 -.00000096  00000-0  42969-4 0  9991
2 39075  52.0101 355.0841 0000638  53.0643 307.0282 12.62267149372317
0 GLOBALSTAR M078
1 39076U 13005E   21050.47190221 -.00000063  00000-0  22686-3 0  9995
2 39076  51.9873  82.7850 0000360 279.0523  81.0303 12.62267099370714
0 GLOBALSTAR M095
1 39077U 13005F   21050.33967033 -.00000109  00000-0 -31210-4 0  9990
2 39077  51.9798  81.1688 0000185 358.3908   1.6957 12.62265421370558
0 LANDSAT 8
1 39084U 13008A   21050.81502645  .00000040  00000-0  18870-4 0  9997
2 39084  98.1972 123.0779 0001271 102.5332 257.6009 14.57118182426715
0 SARAL
1 39086U 13009A   21050.51948988 -.00000013  00000-0  11298-4 0  9999
2 39086  98.5432 238.3325 0000475 145.2418 214.8797 14.32044493417369
0 AAUSAT3
1 39087U 13009B   21050.82452642  .00000065  00000-0  37431-4 0  9994
2 39087  98.4319 256.7075 0011648 264.9574  95.0296 14.35897728418314
0 SAPPHIRE
1 39088U 13009C   21050.31064666  .00000001  00000-0  15572-4 0  9996
2 39088  98.4532 252.4785 0010255 273.2043  86.7969 14.34233821417860
0 NEOSSAT
1 39089U 13009D   21050.32640962  .00000018  00000-0  21592-4 0  9994
2 39089  98.4497 252.9993 0010152 275.0616  84.9410 14.34547013417940
0 STRAND 1
1 39090U 13009E   21050.79198175  .00000018  00000-0  21444-4 0  9997
2 39090  98.4362 255.6987 0008001 269.0374  90.9895 14.35168876418188
0 BRITE-A TUGSAT-1
1 39091U 13009F   21050.84717558  .00000006  00000-0  17157-4 0  9999
2 39091  98.4360 254.8821 0009358 276.3751  83.6369 14.35175016418214
0 BRITE-U UNIBRITE
1 39092U 13009G   21050.82553430  .00000012  00000-0  19213-4 0  9997
2 39092  98.4387 254.5537 0008239 270.5331  89.4911 14.35046585418172
0 DOVE 2
1 39132U 13015C   21050.41570691  .00000373  00000-0  35928-4 0  9993
2 39132  64.8805 331.9451 0021194 218.6708 256.4652 15.07830356430933
0 AIST 2
1 39133U 13015D   21050.87102553  .00000137  00000-0  21976-4 0  9998
2 39133  64.8757 356.4822 0022010 221.0362 233.9458 15.05069544430470
0 SOMP
1 39134U 13015E   21050.45948853  .00001876  00000-0  90644-4 0  9993
2 39134  64.8632 196.0234 0008850 222.3625 137.6821 15.22007261433250
0 BEESAT 3
1 39135U 13015F   21050.47754134  .00001413  00000-0  76771-4 0  9995
2 39135  64.8650 223.2469 0012046 199.5536 160.5130 15.18924549432723
0 BEESAT 2
1 39136U 13015G   21050.49241846  .00001266  00000-0  70642-4 0  9996
2 39136  64.8734 229.1102 0027940 258.9985 100.7999 15.18309865432607
0 GAOFEN 1
1 39150U 13018A   21050.80489427  .00000062  00000-0  16028-4 0  9990
2 39150  97.8440 127.0212 0020026  43.3143 316.9630 14.76567010421513
0 NEE 01 PEGASUS
1 39151U 13018B   21050.74419650  .00000152  00000-0  26953-4 0  9993
2 39151  97.9742 153.9461 0017373  24.0623 336.1397 14.80287055422264
0 TURKSAT 3U
1 39152U 13018C   21050.68231920  .00000188  00000-0  31093-4 0  9999
2 39152  97.8887 141.5087 0016676   6.3309 353.8111 14.80973496422373
0 CUBEBUG 1
1 39153U 13018D   21050.73998537  .00000204  00000-0  33321-4 0  9995
2 39153  97.9872 156.8811 0017146  19.7108 340.4764 14.80856920422380
0 PROBA V
1 39159U 13021A   21050.38150956 -.00000039  00000-0  91014-6 0  9993
2 39159  98.4270 103.8323 0005251  69.6160 290.5582 14.22996177404625
0 VNREDSAT 1
1 39160U 13021B   21050.77125160  .00000067  00000-0  22121-4 0  9998
2 39160  98.1255 129.9138 0001659  91.2721 268.8667 14.62951727416049
0 ESTCUBE 1
1 39161U 13021C   21050.44669381  .00000144  00000-0  30494-4 0  9999
2 39161  97.9465 134.3211 0009542 162.8815 197.2721 14.72425195418381
0 COSMOS 2486
1 39177U 13028A   21050.76661114 -.00000020  00000-0  51920-5 0  9996
2 39177  97.9596  88.3252 0010212 319.6464  40.3963 14.54729704408720
0 RESURS P1
1 39186U 13030A   21050.86467490  .00001123  00000-0  36306-4 0  9995
2 39186  97.1927 116.0567 0015041 298.3764 171.9669 15.34059119428405
0 COSMOS 2487
1 39194U 13032A   21050.51851016  .00004024  00000-0  91674-4 0  9991
2 39194  74.7076 250.3210 0002369 289.8459  70.2499 15.43247665428151
0 IRIS
1 39197U 13033A   21050.44993807  .00000121  00000-0  23586-4 0  9993
2 39197  97.9618 235.9155 0028337 148.9880 211.3011 14.78816972412584
0 SJ-11-05
1 39202U 13035A   21050.77028916  .00000046  00000-0  18885-4 0  9990
2 39202  98.1292 217.7238 0010662 189.1832 170.9179 14.60913412405189
